STARLINK-3655           
1 51983U 22025AD  23026.54097780  .00009422  00000+0  60904-3 0  9998
2 51983  53.2173 108.4657 0001261  92.7515 267.3622 15.08855175 49230
STARLINK-3664           
1 51984U 22025AE  23026.50417427  .00002561  00000+0  17889-3 0  9990
2 51984  53.2157 108.6475 0001308  76.2221 283.8917 15.08846959 49236
STARLINK-3651           
1 51985U 22025AF  23026.53361399  .00004662  00000+0  31072-3 0  9994
2 51985  53.2150 108.5074 0001063  81.2419 278.8693 15.08851637 49231
STARLINK-3645           
1 51986U 22025AG  23026.49681887  .00004221  00000+0  28312-3 0  9991
2 51986  53.2137 108.6809 0001593  80.7966 279.3207 15.08844769 49238
STARLINK-3644           
1 51987U 22025AH  23026.44530074  .00000641  00000+0  58377-4 0  9995
2 51987  53.2139 108.9102 0001529  82.6309 277.4857 15.08841065 49226
STARLINK-3640           
1 51988U 22025AJ  23026.49313742  .00011279  00000+0  72524-3 0  9990
2 51988  53.2140 108.6943 0001642  89.6142 270.5038 15.08858600 49236
STARLINK-3642           
1 51989U 22025AK  23026.50785671  .00006660  00000+0  43599-3 0  9995
2 51989  53.2139 108.6212 0001150  99.4266 260.6856 15.08852329 49234
STARLINK-3657           
1 51990U 22025AL  23026.47657189  .00003820  00000+0  25789-3 0  9991
2 51990  53.2162  88.7603 0001175  85.4082 274.7044 15.08853574 49500
STARLINK-3652           
1 51991U 22025AM  23026.50049467  .00014388  00000+0  91964-3 0  9999
2 51991  53.2146 108.6628 0001470  85.4758 274.6402 15.08864639 49231
STARLINK-3643           
1 51992U 22025AN  23026.53177603  .00004298  00000+0  28790-3 0  9993
2 51992  53.2141  88.5246 0001539 101.4215 258.6950 15.08849263 49081
STARLINK-3648           
1 51993U 22025AP  23026.55569191  .00003017  00000+0  20750-3 0  9999
2 51993  53.2146 108.4088 0001305  96.3468 263.7673 15.08849287 49249
STARLINK-3647           
1 51994U 22025AQ  23026.52808938  .00002134  00000+0  15207-3 0  9992
2 51994  53.2154  88.5431 0001560 102.3002 257.8165 15.08852981 49092
STARLINK-3636           
1 51995U 22025AR  23026.53911841  .00004391  00000+0  29360-3 0  9994
2 51995  53.2174  88.4785 0001177 104.9030 255.2093 15.08862348 49088
STARLINK-3538           
1 51996U 22025AS  23026.39193472  .00010196  00000+0  65753-3 0  9997
2 51996  53.2135  89.1474 0001346  99.3560 260.7584 15.08852816 49076
STARLINK-3589           
1 51997U 22025AT  23026.53545702  .00012219  00000+0  78405-3 0  9997
2 51997  53.2168  88.4938 0001206 103.3141 256.7986 15.08858761 49083
STARLINK-3618           
1 51998U 22025AU  23026.49497590  .00000534  00000+0  51634-4 0  9997
2 51998  53.2167  88.6846 0001133  91.3139 268.7983 15.08846375 49094
STARLINK-3667           
1 51999U 22025AV  23026.45545198  .00004339  00000+0  29048-3 0  9992
2 51999  53.2149  88.8612 0001237  95.2786 264.8348 15.08850192 49087
STARLINK-3653           
1 52000U 22025AW  23026.48857388  .00005877  00000+0  38689-3 0  9995
2 52000  53.2152  88.7146 0001416  95.7826 264.3328 15.08852169 49095
STARLINK-3659           
1 52001U 22025AX  23026.42505542  .00002433  00000+0  17090-3 0  9990
2 52001  53.2150  88.9996 0001062  95.2398 264.8715 15.08844281 49085
STARLINK-3668           
1 52002U 22025AY  23026.48761745  .00009456  00000+0  61110-3 0  9990
2 52002  53.2156  88.7150 0001071 101.4071 258.7041 15.08857598 49090
STARLINK-3654           
1 52003U 22025AZ  23026.48393700  .00007705  00000+0  50144-3 0  9993
2 52003  53.2149  88.7350 0001099  95.8184 264.2934 15.08854131 49099
STARLINK-3537           
1 52088U 22029A   23026.46997410  .00028741  00000+0  18080-2 0  9991
2 52088  53.2191  48.5923 0001461  98.9878 261.1280 15.09013356 50365
STARLINK-3722           
1 52089U 22029B   23026.55477811  .00001812  00000+0  13195-3 0  9993
2 52089  53.2174 158.4022 0001709  83.2076 276.9111 15.08838265 48839
STARLINK-3712           
1 52090U 22029C   23026.60997466  .00001389  00000+0  10532-3 0  9995
2 52090  53.2187 158.1561 0001625  88.6044 271.5134 15.08841510 48845
STARLINK-3713           
1 52091U 22029D   23026.55109422  .00000274  00000+0  35283-4 0  9990
2 52091  53.2172 158.4300 0001499  80.9372 279.1789 15.08842366 48831
STARLINK-3716           
1 52092U 22029E   23026.61365536  .00004174  00000+0  28015-3 0  9995
2 52092  53.2151 158.1469 0001882  80.4987 279.6218 15.08845680 48840
STARLINK-3673           
1 52093U 22029F   23026.60262986 -.00000765  00000+0 -29994-4 0  9992
2 52093  53.2150 158.2020 0001796  87.4362 272.6836 15.08827962 48844
STARLINK-3714           
1 52094U 22029G   23026.60629208  .00001725  00000+0  12641-3 0  9992
2 52094  53.2159 158.1819 0001180  92.0299 268.0828 15.08846474 48846
STARLINK-3701           
1 52095U 22029H   23026.59525359  .00001676  00000+0  12333-3 0  9996
2 52095  53.2162 158.2282 0001305  98.0576 262.0564 15.08841644 48844
STARLINK-3717           
1 52096U 22029J   23026.57410186 -.00000303  00000+0 -92967-6 0  9998
2 52096  53.2203 148.3210 0002310  98.1229 262.0025 15.08834956 48968
STARLINK-3665           
1 52098U 22029L   23026.59893432  .00000012  00000+0  18840-4 0  9992
2 52098  53.2159 158.2159 0001600  80.8154 279.3019 15.08839535 48847
STARLINK-3702           
1 52100U 22029N   23026.59157050  .00000337  00000+0  39259-4 0  9992
2 52100  53.2155 158.2519 0001612  91.4070 268.7107 15.08845419 48843
STARLINK-3703           
1 52101U 22029P   23026.58421050  .00001624  00000+0  12007-3 0  9997
2 52101  53.2142 158.2776 0001093  91.1281 268.9836 15.08842206 48830
STARLINK-3709           
1 52102U 22029Q   23026.59345133 -.00000803  00000+0 -32394-4 0  9998
2 52102  53.2173 148.2367 0001483 113.1544 246.9605 15.08834315 48977
STARLINK-3705           
1 52103U 22029R   23026.56673162  .00002535  00000+0  17728-3 0  9997
2 52103  53.2175 148.3471 0001436  86.5595 273.5562 15.08846948 48966
STARLINK-3706           
1 52105U 22029T   23026.56031843  .00007852  00000+0  51068-3 0  9995
2 52105  53.2175 148.3796 0001908 104.4310 255.6894 15.08856144 48965
STARLINK-3670           
1 52106U 22029U   23026.58053348  .00001006  00000+0  81288-4 0  9995
2 52106  53.2153 158.3028 0002151  70.0761 290.0462 15.08840955 48833
STARLINK-3658           
1 52107U 22029V   23026.55569480  .00000889  00000+0  73986-4 0  9996
2 52107  53.2173 148.4029 0002253  81.9699 278.1549 15.08839426 48969
STARLINK-3698           
1 52108U 22029W   23026.56305362  .00001256  00000+0  96973-4 0  9995
2 52108  53.2188 148.3725 0001405  92.8367 267.2786 15.08841847 48961
STARLINK-3687           
1 52110U 22029Y   23026.55936587  .00002356  00000+0  16605-3 0  9991
2 52110  53.2179 148.3813 0001776 104.9931 255.1258 15.08848610 48960
STARLINK-3708           
1 52111U 22029Z   23026.61089055  .00000843  00000+0  71035-4 0  9996
2 52111  53.2159 148.1673 0001614  92.9751 267.1426 15.08843677 48977
STARLINK-3734           
1 52112U 22029AA  23026.55201293  .00001468  00000+0  11033-3 0  9995
2 52112  53.2176 148.4196 0001776  84.2322 275.8873 15.08844827 48966
STARLINK-3736           
1 52113U 22029AB  23026.60353026  .00001881  00000+0  13623-3 0  9990
2 52113  53.2176 148.1910 0001215 101.4775 258.6354 15.08844894 48978
STARLINK-3737           
1 52114U 22029AC  23026.54833199  .00001347  00000+0  10272-3 0  9992
2 52114  53.2171 148.4435 0001966  78.2579 281.8633 15.08840052 48964
STARLINK-3685           
1 52115U 22029AD  23026.59617464  .00002090  00000+0  14933-3 0  9997
2 52115  53.2134 148.2349 0001516  61.9469 298.1676 15.08844382 48973
STARLINK-3735           
1 52116U 22029AE  23026.60720950 -.00000021  00000+0  16777-4 0  9997
2 52116  53.2172 148.1819 0001604  94.0351 266.0824 15.08853212 48973
STARLINK-3738           
1 52117U 22029AF  23026.58881474  .00001197  00000+0  93305-4 0  9990
2 52117  53.2153 148.2678 0002319  84.5463 275.5794 15.08845873 48985
STARLINK-3743           
1 52118U 22029AG  23026.59985113  .00000310  00000+0  37563-4 0  9997
2 52118  53.2175 148.2099 0001270  74.0606 286.0526 15.08846963 48975
STARLINK-3558           
1 52119U 22029AH  23026.58145469  .00000930  00000+0  76549-4 0  9994
2 52119  53.2174 148.2997 0001759  87.1918 272.9275 15.08843238 48972
STARLINK-3534           
1 52120U 22029AJ  23026.59249463  .00001689  00000+0  12418-3 0  9992
2 52120  53.2161 148.2419 0001464  77.4685 282.6471 15.08841213 48983
STARLINK-3678           
1 52121U 22029AK  23026.56397559  .00001311  00000+0  10046-3 0  9997
2 52121  53.2169 138.3704 0001342  83.9205 276.1940 15.08841075 49104
STARLINK-3726           
1 52122U 22029AL  23026.58513356  .00000966  00000+0  78766-4 0  9994
2 52122  53.2179 148.2820 0001112  96.2604 263.8515 15.08841574 48979
STARLINK-3725           
1 52123U 22029AM  23026.55661479  .00004286  00000+0  28714-3 0  9998
2 52123  53.2142 138.4110 0001210  80.5634 279.5495 15.08846932 49112
STARLINK-3684           
1 52124U 22029AN  23026.57777504  .00000437  00000+0  45552-4 0  9992
2 52124  53.2174 148.3130 0001457  94.0001 266.1158 15.08842136 48974
STARLINK-3727           
1 52125U 22029AP  23026.55293909  .00000271  00000+0  35101-4 0  9998
2 52125  53.2191 138.4104 0001356  86.2328 273.8819 15.08838290 49110
STARLINK-3732           
1 52126U 22029AQ  23026.56029509 -.00000455  00000+0 -10452-4 0  9991
2 52126  53.2184 138.3866 0001914  92.2500 267.8711 15.08853420 49101
STARLINK-3715           
1 52127U 22029AR  23026.54925747  .00001368  00000+0  10401-3 0  9994
2 52127  53.2177 138.4346 0001730  92.4068 267.7122 15.08840083 49101
STARLINK-3661           
1 52129U 22029AT  23026.54190015  .00000584  00000+0  54792-4 0  9999
2 52129  53.2191 138.4599 0002100  86.0458 274.0774 15.08834504 49119
STARLINK-3711           
1 52131U 22029AV  23026.53823370 -.00003328  00000+0 -19123-3 0  9997
2 52131  53.2172 138.4904 0001176  98.6953 261.4172 15.08821290 49112
STARLINK-3718           
1 52132U 22029AW  23026.54557534  .00001765  00000+0  12893-3 0  9993
2 52132  53.2151 138.4547 0001042  95.9495 264.1616 15.08840366 49114
